[268pbernardi(2024)]
absolute_magnitude             = 14
discoverer                     = F. Bernardi
discovery                      = 2005-11-01
iau_designation                = P/2005 V1
name                           = 268P/Bernardi (2024)
orbit_ArgOfPericenter          = 359.9047
orbit_AscendingNode            = 124.8483
orbit_Eccentricity             = 0.473387
orbit_Epoch                    = 2460300.5
orbit_Inclination              = 15.6274
orbit_PericenterDistance       = 2.441911
orbit_TimeAtPericenter         = 2460662.1625
orbit_good                     = 1000
ref                            = MPC 92277
slope_parameter                = 4
type                           = comet

[26pgriggskjellerup(2023)]
absolute_magnitude             = 12
discoverer                     = J. Grigg, J.F. Skjellerup
discovery                      = 1902-07-23
discovery_code                 = 1922b
iau_designation                = P/1922 K1
name                           = 26P/Grigg-Skjellerup (2023)
orbit_ArgOfPericenter          = 2.1461
orbit_AscendingNode            = 211.5406
orbit_Eccentricity             = 0.640635
orbit_Epoch                    = 2460300.5
orbit_Inclination              = 22.4329
orbit_PericenterDistance       = 1.083898
orbit_TimeAtPericenter         = 2460303.8425
orbit_good                     = 956
perihelion_code                = 1922 I
ref                            = MPEC 2023-RF3
slope_parameter                = 16
type                           = comet

[276pvorobjov(2024)]
absolute_magnitude             = 11.5
discoverer                     = T. Vorobjov
discovery                      = 2012-10-15
iau_designation                = P/2012 T7
name                           = 276P/Vorobjov (2024)
orbit_ArgOfPericenter          = 199.3793
orbit_AscendingNode            = 211.3392
orbit_Eccentricity             = 0.268956
orbit_Epoch                    = 2460300.5
orbit_Inclination              = 14.8127
orbit_PericenterDistance       = 3.898441
orbit_TimeAtPericenter         = 2460656.2218
orbit_good                     = 1000
ref                            = MPEC 2023-Y70
slope_parameter                = 4
type                           = comet

[2778102006fv35]
absolute_magnitude             = 21.8
albedo                         = 0.15
discoverer                     = Spacewatch at Kitt Peak
discovery                      = 2006-03-29
iau_designation                = 2006 FV35
minor_planet_number            = 277810
orbit_ArgOfPericenter          = 170.81408
orbit_AscendingNode            = 179.48279
orbit_Eccentricity             = 0.3775077
orbit_Epoch                    = 2460000.5
orbit_Inclination              = 7.10437
orbit_MeanAnomaly              = 173.09342
orbit_MeanMotion               = 0.98349432
orbit_SemiMajorAxis            = 1.001432
radius                         = 1
slope_parameter                = 0.15
type                           = asteroid

[279plasagra(2023)]
absolute_magnitude             = 14
discovery                      = 2009-08-19
iau_designation                = P/2009 QG31
name                           = 279P/LaSagra (2023)
orbit_ArgOfPericenter          = 5.8134
orbit_AscendingNode            = 346.1863
orbit_Eccentricity             = 0.399384
orbit_Epoch                    = 2460300.5
orbit_Inclination              = 5.049
orbit_PericenterDistance       = 2.147269
orbit_TimeAtPericenter         = 2460053.869
orbit_good                     = 1000
ref                            = MPEC 2023-XP6
slope_parameter                = 4
type                           = comet

[280plarsen(2023)]
absolute_magnitude             = 12.5
discoverer                     = J.A. Larsen
discovery                      = 2004-04-19
iau_designation                = P/2004 H2
name                           = 280P/Larsen (2023)
orbit_ArgOfPericenter          = 104.728
orbit_AscendingNode            = 131.3768
orbit_Eccentricity             = 0.416985
orbit_Epoch                    = 2460300.5
orbit_Inclination              = 11.7727
orbit_PericenterDistance       = 2.640101
orbit_TimeAtPericenter         = 2460161.1635
orbit_good                     = 1000
ref                            = MPEC 2023-J95
slope_parameter                = 4
type                           = comet

[281pmoss(2023)]
absolute_magnitude             = 11
discoverer                     = C. Rinner
discovery                      = 2013-02-05
iau_designation                = P/2013 CE31
name                           = 281P/MOSS (2023)
orbit_ArgOfPericenter          = 26.7247
orbit_AscendingNode            = 87.1717
orbit_Eccentricity             = 0.173456
orbit_Epoch                    = 2460300.5
orbit_Inclination              = 4.7177
orbit_PericenterDistance       = 4.034672
orbit_TimeAtPericenter         = 2459977.5408
orbit_good                     = 1000
ref                            = MPEC 2023-D41
slope_parameter                = 4
type                           = comet

[285plinear(2023)]
absolute_magnitude             = 15
discovery                      = 2003-10-19
iau_designation                = P/2003 U2
name                           = 285P/LINEAR (2023)
orbit_ArgOfPericenter          = 178.3907
orbit_AscendingNode            = 185.5035
orbit_Eccentricity             = 0.618514
orbit_Epoch                    = 2460300.5
orbit_Inclination              = 25.0373
orbit_PericenterDistance       = 1.719211
orbit_TimeAtPericenter         = 2459956.6856
orbit_good                     = 1000
ref                            = MPEC 2023-B57
slope_parameter                = 4
type                           = comet

[2867steins]
absolute_magnitude             = 12.6
albedo                         = 0.3
discoverer                     = N.S. Chernykh
discovery                      = 1969-11-04
iau_designation                = 1969 VC
minor_planet_number            = 2867
name                           = Steins
orbit_ArgOfPericenter          = 251.09237
orbit_AscendingNode            = 55.33518
orbit_Eccentricity             = 0.1450619
orbit_Epoch                    = 2460200.5
orbit_Inclination              = 9.93158
orbit_MeanAnomaly              = 4.62038
orbit_MeanMotion               = 0.27123609
orbit_SemiMajorAxis            = 2.3635842
radius                         = 11
rot_pole_de                    = -62
rot_pole_ra                    = 91
rot_pole_w0                    = 321.76
rot_pole_w1                    = 1428.09917
slope_parameter                = 0.15
type                           = asteroid

